0 FENGYUN 1C DEB
1 31374U 99025BSE 13287.12490268  .00001555  00000-0  93818-3 0  4966
2 31374 099.6166 049.1509 0222587 315.3325 043.3825 13.96737410335123
0 FENGYUN 1C DEB
1 31374U 99025BSE 13289.20217111  .00010851  00000-0  63289-2 0  4979
2 31374 099.6133 051.3125 0224974 308.9345 049.3591 13.96775738335411
0 FENGYUN 1C DEB
1 31374U 99025BSE 13289.56029149  .00003397  00000-0  20143-2 0  4980
2 31374 099.6115 051.7002 0222230 308.1115 049.9665 13.96762321335466
0 FENGYUN 1C DEB
1 31374U 99025BSE 13291.56597601  .00003354  00000-0  19895-2 0  4992
2 31374 099.6119 053.7968 0221951 302.6251 055.3710 13.96776029335745
0 FENGYUN 1C DEB
1 31374U 99025BSE 13292.56880613  .00002945  00000-0  17503-2 0  5003
2 31374 099.6125 054.8438 0222109 299.9910 057.9036 13.96779098335885
0 FENGYUN 1C DEB
1 31374U 99025BSE 13293.57164290  .00002939  00000-0  17464-2 0  5011
2 31374 099.6121 055.8926 0222049 297.2413 060.6300 13.96785032336023
0 FENGYUN 1C DEB
1 31374U 99025BSE 13295.21914200  .00002852  00000-0  16948-2 0  5029
2 31374 099.6121 057.6150 0222380 292.9054 064.8626 13.96793843336254
